0217P         2025 05 24.6390  1.228250  0.689043  246.8709  125.4641   12.8634  20220129  12.0  4.0  217P/LINEAR                                              MPEC 2021-N06
0218P         2020 10  3.7954  1.167756  0.622272   59.6884  175.9764    2.7286  20220129  16.0  4.0  218P/LINEAR                                              MPEC 2020-K19
0219P         2024 02 13.4464  2.356630  0.354103  107.4897  230.9569   11.5351  20220129  11.0  4.0  219P/LINEAR                                              MPC100284
0220P         2020 12 10.6373  1.552985  0.501667  180.5619  150.1020    8.1288  20220129  15.0  4.0  220P/McNaught                                            MPEC 2021-BE3
0221P         2021 12 18.0757  1.753132  0.492674   40.1193  229.7020   11.4275  20220129  14.5  4.0  221P/LINEAR                                              MPEC 2021-J28
0222P         2024 05 12.6785  0.827016  0.714745  346.2584    6.7766    5.0983  20220129  20.0  4.0  222P/LINEAR                                              MPC 92277
0223P         2019 01 27.9157  2.427905  0.416227   37.8232  346.7706   27.0263  20220129  12.0  4.0  223P/Skiff                                               MPEC 2021-S45
0224P         2022 09 29.9116  2.045607  0.406549   16.6448   40.0621   13.3000  20220129  15.5  4.0  224P/LINEAR-NEAT                                         MPC 75727
0225P         2023 08  8.1140  1.319903  0.638307    3.8838   14.2003   21.3652  20220129  18.0  4.0  225P/LINEAR                                              MPC 75727
0226P         2023 12 27.3617  1.775221  0.528736  341.0472   54.0047   44.0347  20220129  12.5  4.0  226P/Pigott-LINEAR-Kowalski                              MPC106349
0227P         2024 03  2.0659  1.665306  0.526464   97.4610   42.7333    6.8175  20220129  16.5  2.0  227P/Catalina-LINEAR                                     MPC102956
0228P         2020 03  9.1142  3.434366  0.176253  115.0504   30.9826    7.9127  20220129  14.5  2.0  228P/LINEAR                                              MPEC 2020-L06
0229P         2025 03  5.5707  2.445494  0.377494  223.9869  157.9108   26.0923  20220129  13.0  4.0  229P/Gibbs                                               MPC106349
0230P         2022 03 19.3287  1.568782  0.545458  313.4274  106.9851   15.4701  20220129  13.0  4.0  230P/LINEAR                                              MPEC 2022-A21
0231P         2019 06 17.5983  3.043990  0.245915   43.8867  133.0172   12.3273  20220129  14.5  2.0  231P/LINEAR-NEAT                                         MPEC 2020-K19
0232P         2019 04  5.6170  2.980847  0.334300   53.3276   56.0160   14.6379  20220129  11.5  4.0  232P/Hill                                                MPC112394
0233P         2020 10  1.5963  1.781804  0.411878   27.0083   74.9163   11.2852  20220129  15.0  4.0  233P/La Sagra                                            MPEC 2021-N06
0234P         2024 10 24.0364  2.828496  0.255467  357.2227  179.5689   11.5346  20220129  12.0  4.0  234P/LINEAR                                              MPC110497
0235P         2018 03 21.1205  2.653957  0.328115  333.4182  202.9704    9.0306  20220129  12.0  4.0  235P/LINEAR                                              MPC110497
0236P         2025 02  3.5020  1.830433  0.509191  119.2716  245.5988   16.3416  20220129  14.0  4.0  236P/LINEAR                                              MPC107688
0237P         2023 05 14.6089  1.986809  0.434329   25.2376  245.3754   14.0147  20220129  14.5  2.0  237P/LINEAR                                              MPC109593
0238P         2022 06  5.7206  2.369156  0.252318  324.2980   51.6233    1.2641  20220129  14.5  4.0  238P/Read                                                MPC107688
0239P         2019 01  9.2839  1.653282  0.630076  220.4178  255.9154   11.2982  20220129  17.5  2.0  239P/LINEAR                                              MPEC 2021-F20
0240P         2018 05 15.7610  2.128875  0.449288  351.9463   74.9087   23.5180  20220129  12.1  4.0  240P/NEAT                                                MPEC 2021-F20
0241P         2021 07 25.8487  1.917595  0.610108  111.4359  305.4841   21.1062  20220129  13.5  4.0  241P/LINEAR                                              MPEC 2022-A21
0242P         2024 12 30.9836  3.961442  0.278359  245.8070  180.3868   32.5031  20220129   8.0  4.0  242P/Spahr                                               MPEC 2021-S45
0243P         2018 08 27.0574  2.450146  0.360379  283.5671   87.6236    7.6404  20220129  12.5  4.0  243P/NEAT                                                MPC111774
0244P         2022 11 16.8111  3.920692  0.199009   93.0443  353.9911    2.2594  20220129   9.0  4.0  244P/Scotti                                              MPEC 2022-A21
0245P         2018 02  8.1799  2.197776  0.456761  316.8816  316.6528   21.1957  20220129  14.0  4.0  245P/WISE                                                MPEC 2020-K19
0246P         2021 02 23.6352  2.864620  0.288141  176.5164   78.6938   15.9735  20220129  10.5  4.0  246P/NEAT                                                MPEC 2021-WD8
0247P         2018 12  1.3199  1.490941  0.624308   47.4425   54.0144   13.6552  20220129  16.5  2.0  247P/LINEAR                                              MPEC 2021-F20
0248P         2025 09 15.5704  2.165042  0.638638  209.8538  207.7897    6.3501  20220129  14.0  4.0  248P/Gibbs                                               MPC 75730
0249P         2020 06 29.4891  0.497420  0.819982   65.6727  239.1358    8.3908  20220129  15.5  4.0  249P/LINEAR                                              MPEC 2021-S45
0250P         2025 05 17.9517  2.259938  0.399737   46.1581   73.4404   13.1598  20220129  14.5  4.0  250P/Larson                                              MPC110497
0251P         2024 02 13.1805  1.739054  0.504772   31.2845  219.3642   23.3887  20220129  16.5  2.0  251P/LINEAR                                              MPC104795
0252P         2021 07 11.2933  1.000586  0.671858  343.3069  190.9421   10.4100  20220129  17.5  4.0  252P/LINEAR                                              MPEC 2021-S45
0253P         2024 10 20.8806  2.030290  0.414216  230.6528  146.8848    4.9435  20220129  14.5  4.0  253P/PANSTARRS                                           MPEC 2020-FB5
0254P         2020 09 30.0276  3.137990  0.319785  219.5631  129.1773   32.5718  20220129  11.0  4.0  254P/McNaught                                            MPEC 2022-A21
0255P         2022 09  7.2602  0.848566  0.711765  185.9700  275.7041   13.4148  20220129  14.1  4.0  255P/Levy                                                MPEC 2021-UA9
0256P         2023 03 12.3734  2.699791  0.417993  124.2234   81.3451   27.6214  20220129  14.0  2.0  256P/LINEAR                                              MPC 84027
0257P         2020 09 10.7520  2.143367  0.430356  117.6920  207.7295   20.2213  20220129  11.5  4.0  257P/Catalina                                            MPEC 2021-Y10
0258P         2020 06 18.4002  3.480357  0.208467   25.9238  126.2447    6.7461  20220129  13.0  4.0  258P/PANSTARRS                                           MPEC 2021-U31
0259P         2022 02  8.4042  1.805641  0.338685  257.6465   51.4494   15.8904  20220129  15.5  4.0  259P/Garradd                                             MPC106349
0260P         2019 09 10.3378  1.415687  0.609261   18.4199  349.3383   15.0583  20220129  13.5  4.0  260P/McNaught                                            MPEC 2020-SI8
0261P         2019 06 19.2013  2.012915  0.423305   67.1917  291.1465    6.0739  20220129  14.0  4.0  261P/Larson                                              MPEC 2021-J28
0262P         2030 12 10.7145  1.264951  0.815961  171.0283  217.8733   29.2503  20220129  13.5  4.0  262P/McNaught-Russell                                    MPC 82322
0263P         2023 01 30.5443  1.237815  0.593465   34.8992  105.5655   11.5216  20220129   9.0  4.0  263P/Gibbs                                               MPC 89018
0264P         2019 08  4.5400  2.430706  0.375292  346.7198  220.4867   25.1953  20220129  13.0  4.0  264P/Larsen                                              MPC114608
0265P         2021 02  9.0886  1.499262  0.647555   33.4513  342.9259   14.3650  20220129  14.5  4.0  265P/LINEAR                                              MPC 79870
0266P         2020 04 19.2363  2.333431  0.339541   97.7321    4.9979    3.4270  20220129  14.7  4.0  266P/Christensen                                         MPEC 2021-F20
0267P         2024 04 24.5936  1.238434  0.614375  114.1875  228.5942    6.1406  20220129  19.5  4.0  267P/LONEOS                                              MPC114608
0268P         2024 12 22.5904  2.376540  0.477685  359.8115  127.3174   15.9992  20220129  14.0  4.0  268P/Bernardi                                            MPC 92277
0269P         2014 09 29.0426  4.026193  0.430804  225.7880  241.7218    7.0759  20220129  10.0  4.0  269P/Jedicke                                             MPC104795
0270P         2030 08 19.9956  3.544059  0.468089  209.7906  222.9993    2.9216  20220129   8.0  4.0  270P/Gehrels                                             MPC 88332
0271P         2013 07 14.1095  4.260260  0.394870   36.3861    9.3154    6.8717  20220129  11.0  4.0  271P/van Houten-Lemmon                                   MPC 92277
0272P         2022 07 17.0878  2.432163  0.454563   27.9076  109.4701   18.0751  20220129  16.0  2.0  272P/NEAT                                                MPC 81862
0273P         2012 12 19.5147  0.823152  0.974195   20.3280  320.4002  136.7758  20220129  11.5  4.0  273P/Pons-Gambart                                        MPC 82723
0274P         2022 04  8.4755  2.453163  0.439278   38.4712   81.3406   15.8162  20220129  13.0  4.0  274P/Tombaugh-Tenagra                                    MPEC 2022-A21
